STARLINK-32037          
1 60283U 24132F   26068.39311660  .00000058  00000+0  14079-4 0  9999
2 60283  53.1605  53.9022 0001143  97.8508 262.2622 15.30186883 91519
TEVEL2-2                
1 63219U 25052K   26068.64848259  .00020339  00000+0  69428-3 0  9991
2 63219  97.3987 324.7700 0004693 105.7930 254.3828 15.30343745 54855
